{"type": "FeatureCollection", "features": [ {"type": "Feature", "properties": {"norad_id": 37418, "name": "FENGYUN 1C DEB", "group": "fengyun-1c-debris", "lat": 60.687497583699965, "lon": -137.77368077094096, "alt_km": 1741.010378795393, "timestamp": "2025-12-11T05:00:26.597546+00:00", "meta": {"OBJECT_NAME": "FENGYUN 1C DEB", "OBJECT_ID": "1999-025EGL", "EPOCH": "2025-12-06T16:12:36.074592", "MEAN_MOTION": 11.95112147, "ECCENTRICITY": 0.10777154, "INCLINATION": 98.6124, "RA_OF_ASC_NODE": 234.8635, "ARG_OF_PERICENTER": 331.8071, "MEAN_ANOMALY": 22.8442, "EPHEMERIS_TYPE": 0, "CLASSIFICATION_TYPE": "U", "NORAD_CAT_ID": 37418, "ELEMENT_SET_NO": 999, "REV_AT_EPOCH": 49412, "BSTAR": 0.0048233577, "MEAN_MOTION_DOT": 1.984e-05, "MEAN_MOTION_DDOT": 0}, "tle": {"line1": "1 37418U 99025EGL 25340.67541753  .00001984  00000+0  48234-2 0  9994", "line2": "2 37418  98.6124 234.8635 1077715 331.8071  22.8442 11.95112147494121"}}, "geometry": {"type": "Point", "coordinates": [-137.77368077094096, 60.687497583699965]}}, {"type": "Feature", "properties": {"norad_id": 37420, "name": "FENGYUN 1C DEB", "group": "fengyun-1c-debris", "lat": 58.51719572683121, "lon": -39.51059398845344, "alt_km": 927.7964197408119, "timestamp": "2025-12-11T05:00:26.597556+00:00", "meta": {"OBJECT_NAME": "FENGYUN 1C DEB", "OBJECT_ID": "1999-025EGN", "EPOCH": "2025-12-08T04:40:09.470784", "MEAN_MOTION": 13.9973792, "ECCENTRICITY": 0.00707955, "INCLINATION": 98.8619, "RA_OF_ASC_NODE": 332.3305, "ARG_OF_PERICENTER": 288.8881, "MEAN_ANOMALY": 70.4618, "EPHEMERIS_TYPE": 0, "CLASSIFICATION_TYPE": "U", "NORAD_CAT_ID": 37420, "ELEMENT_SET_NO": 999, "REV_AT_EPOCH": 59701, "BSTAR": 0.00086941135, "MEAN_MOTION_DOT": 1.257e-05, "MEAN_MOTION_DDOT": 0}, "tle": {"line1": "1 37420U 99025EGN 25342.19455406  .00001257  00000+0  86941-3 0  9996", "line2": "2 37420  98.8619 332.3305 0070795 288.8881  70.4618 13.99737920597017"}}, "geometry": {"type": "Point", "coordinates": [-39.51059398845344, 58.51719572683121]}}, {"type": "Feature", "properties": {"norad_id": 37421, "name": "FENGYUN 1C DEB", "group": "fengyun-1c-debris", "lat": -0.7682961174393895, "lon": -59.74719188512204, "alt_km": 1097.7235290543103, "timestamp": "2025-12-11T05:00:26.597566+00:00", "meta": {"OBJECT_NAME": "FENGYUN 1C DEB", "OBJECT_ID": "1999-025EGP", "EPOCH": "2025-12-08T14:18:59.473152", "MEAN_MOTION": 13.40522268, "ECCENTRICITY": 0.0408878, "INCLINATION": 98.8881, "RA_OF_ASC_NODE": 297.8318, "ARG_OF_PERICENTER": 95.9007, "MEAN_ANOMALY": 268.8872, "EPHEMERIS_TYPE": 0, "CLASSIFICATION_TYPE": "U", "NORAD_CAT_ID": 37421, "ELEMENT_SET_NO": 999, "REV_AT_EPOCH": 60890, "BSTAR": 0.0009747, "MEAN_MOTION_DOT": 8.4e-06, "MEAN_MOTION_DDOT": 0}, "tle": {"line1": "1 37421U 99025EGP 25342.59652168  .00000840  00000+0  97470-3 0  9991", "line2": "2 37421  98.8881 297.8318 0408878  95.9007 268.8872 13.40522268608901"}}, "geometry": {"type": "Point", "coordinates": [-59.74719188512204, -0.7682961174393895]}}, {"type": "Feature", "properties": {"norad_id": 37423, "name": "FENGYUN 1C DEB", "group": "fengyun-1c-debris", "lat": 41.56118339968299, "lon": 27.610176792710003, "alt_km": 882.9144344204069, "timestamp": "2025-12-11T05:00:26.597576+00:00", "meta": {"OBJECT_NAME": "FENGYUN 1C DEB", "OBJECT_ID": "1999-025EGR", "EPOCH": "2025-12-09T10:09:17.471232", "MEAN_MOTION": 14.07540897, "ECCENTRICITY": 0.00494259, "INCLINATION": 98.7863, "RA_OF_ASC_NODE": 33.7554, "ARG_OF_PERICENTER": 168.7001, "MEAN_ANOMALY": 191.529, "EPHEMERIS_TYPE": 0, "CLASSIFICATION_TYPE": "U", "NORAD_CAT_ID": 37423, "ELEMENT_SET_NO": 999, "REV_AT_EPOCH": 63563, "BSTAR": 0.0013631012, "MEAN_MOTION_DOT": 2.282e-05, "MEAN_MOTION_DDOT": 0}, "tle": {"line1": "1 37423U 99025EGR 25343.42311888  .00002282  00000+0  13631-2 0  9995", "line2": "2 37423  98.7863  33.7554 0049425 168.7001 191.5290 14.07540897635631"}}, "geometry": {"type": "Point", "coordinates": [27.610176792710003, 41.56118339968299]}}, {"type": "Feature", "properties": {"norad_id": 37424, "name": "FENGYUN 1C DEB", "group": "fengyun-1c-debris", "lat": -36.602356478490975, "lon": -71.3815203957226, "alt_km": 783.3325283910135, "timestamp": "2025-12-11T05:00:26.597586+00:00", "meta": {"OBJECT_NAME": "FENGYUN 1C DEB", "OBJECT_ID": "1999-025EGS", "EPOCH": "2025-12-10T14:24:58.325184", "MEAN_MOTION": 14.17832081, "ECCENTRICITY": 0.0215746, "INCLINATION": 97.2028, "RA_OF_ASC_NODE": 113.5139, "ARG_OF_PERICENTER": 288.8478, "MEAN_ANOMALY": 68.9416, "EPHEMERIS_TYPE": 0, "CLASSIFICATION_TYPE": "U", "NORAD_CAT_ID": 37424, "ELEMENT_SET_NO": 999, "REV_AT_EPOCH": 68543, "BSTAR": 0.0014046, "MEAN_MOTION_DOT": 3.573e-05, "MEAN_MOTION_DDOT": 0}, "tle": {"line1": "1 37424U 99025EGS 25344.60067506  .00003573  00000+0  14046-2 0  9997", "line2": "2 37424  97.2028 113.5139 0215746 288.8478  68.9416 14.17832081685438"}}, "geometry": {"type": "Point", "coordinates": [-71.3815203957226, -36.602356478490975]}}, {"type": "Feature", "properties": {"norad_id": 37427, "name": "FENGYUN 1C DEB", "group": "fengyun-1c-debris", "lat": 2.4306795643165264, "lon": -52.716609592722385, "alt_km": 650.5370135892754, "timestamp": "2025-12-11T05:00:26.597596+00:00", "meta": {"OBJECT_NAME": "FENGYUN 1C DEB", "OBJECT_ID": "1999-025EGV", "EPOCH": "2025-11-25T03:26:10.747680", "MEAN_MOTION": 14.97768919, "ECCENTRICITY": 0.01887185, "INCLINATION": 98.6232, "RA_OF_ASC_NODE": 109.1733, "ARG_OF_PERICENTER": 355.7363, "MEAN_ANOMALY": 4.2239, "EPHEMERIS_TYPE": 0, "CLASSIFICATION_TYPE": "U", "NORAD_CAT_ID": 37427, "ELEMENT_SET_NO": 999, "REV_AT_EPOCH": 60059, "BSTAR": 0.00046451943, "MEAN_MOTION_DOT": 7.8e-05, "MEAN_MOTION_DDOT": 0}, "tle": {"line1": "1 37427U 99025EGV 25329.14317995  .00007800  00000+0  46452-3 0  9996", "line2": "2 37427  98.6232 109.1733 0188718 355.7363   4.2239 14.97768919600595"}}, "geometry": {"type": "Point", "coordinates": [-52.716609592722385, 2.4306795643165264]}}, {"type": "Feature", "properties": {"norad_id": 37428, "name": "FENGYUN 1C DEB", "group": "fengyun-1c-debris", "lat": 4.141282769227247, "lon": -152.53677915767483, "alt_km": 784.9498778942288, "timestamp": "2025-12-11T05:00:26.597606+00:00", "meta": {"OBJECT_NAME": "FENGYUN 1C DEB", "OBJECT_ID": "1999-025EGW", "EPOCH": "2025-12-08T08:21:22.529088", "MEAN_MOTION": 14.34566274, "ECCENTRICITY": 0.00566929, "INCLINATION": 97.7218, "RA_OF_ASC_NODE": 205.4682, "ARG_OF_PERICENTER": 112.0181, "MEAN_ANOMALY": 248.7043, "EPHEMERIS_TYPE": 0, "CLASSIFICATION_TYPE": "U", "NORAD_CAT_ID": 37428, "ELEMENT_SET_NO": 999, "REV_AT_EPOCH": 63373, "BSTAR": 0.0023264608, "MEAN_MOTION_DOT": 6.657e-05, "MEAN_MOTION_DDOT": 0}, "tle": {"line1": "1 37428U 99025EGW 25342.34817742  .00006657  00000+0  23265-2 0  9994", "line2": "2 37428  97.7218 205.4682 0056692 112.0181 248.7043 14.34566274633731"}}, "geometry": {"type": "Point", "coordinates": [-152.53677915767483, 4.141282769227247]}}, {"type": "Feature", "properties": {"norad_id": 37430, "name": "FENGYUN 1C DEB", "group": "fengyun-1c-debris", "lat": 68.89470658693175, "lon": -97.12758891511774, "alt_km": 777.1840524052659, "timestamp": "2025-12-11T05:00:26.597616+00:00", "meta": {"OBJECT_NAME": "FENGYUN 1C DEB", "OBJECT_ID": "1999-025EGY", "EPOCH": "2025-12-05T03:58:16.719456", "MEAN_MOTION": 14.28846273, "ECCENTRICITY": 0.001883, "INCLINATION": 98.7668, "RA_OF_ASC_NODE": 53.2332, "ARG_OF_PERICENTER": 93.5332, "MEAN_ANOMALY": 266.8003, "EPHEMERIS_TYPE": 0, "CLASSIFICATION_TYPE": "U", "NORAD_CAT_ID": 37430, "ELEMENT_SET_NO": 999, "REV_AT_EPOCH": 61593, "BSTAR": 0.0038447795, "MEAN_MOTION_DOT": 9.683e-05, "MEAN_MOTION_DDOT": 0}, "tle": {"line1": "1 37430U 99025EGY 25339.16547129  .00009683  00000+0  38448-2 0  9993", "line2": "2 37430  98.7668  53.2332 0018830  93.5332 266.8003 14.28846273615930"}}, "geometry": {"type": "Point", "coordinates": [-97.12758891511774, 68.89470658693175]}}, {"type": "Feature", "properties": {"norad_id": 37432, "name": "FENGYUN 1C DEB", "group": "fengyun-1c-debris", "lat": 49.89628845357203, "lon": -11.324870545215887, "alt_km": 768.6582862597779, "timestamp": "2025-12-11T05:00:26.597626+00:00", "meta": {"OBJECT_NAME": "FENGYUN 1C DEB", "OBJECT_ID": "1999-025EHA", "EPOCH": "2025-12-09T18:04:39.857376", "MEAN_MOTION": 14.53394088, "ECCENTRICITY": 0.01821829, "INCLINATION": 98.1846, "RA_OF_ASC_NODE": 357.0924, "ARG_OF_PERICENTER": 297.219, "MEAN_ANOMALY": 61.0544, "EPHEMERIS_TYPE": 0, "CLASSIFICATION_TYPE": "U", "NORAD_CAT_ID": 37432, "ELEMENT_SET_NO": 999, "REV_AT_EPOCH": 8333, "BSTAR": 0.001422411, "MEAN_MOTION_DOT": 7.326e-05, "MEAN_MOTION_DDOT": 0}, "tle": {"line1": "1 37432U 99025EHA 25343.75323909  .00007326  00000+0  14224-2 0  9991", "line2": "2 37432  98.1846 357.0924 0182182 297.2190  61.0544 14.53394088 83331"}}, "geometry": {"type": "Point", "coordinates": [-11.324870545215887, 49.89628845357203]}}, {"type": "Feature", "properties": {"norad_id": 37435, "name": "FENGYUN 1C DEB", "group": "fengyun-1c-debris", "lat": 44.597449510849145, "lon": -149.8219673358001, "alt_km": 826.1500896059742, "timestamp": "2025-12-11T05:00:26.597636+00:00", "meta": {"OBJECT_NAME": "FENGYUN 1C DEB", "OBJECT_ID": "1999-025EHD", "EPOCH": "2025-12-09T08:28:59.535840", "MEAN_MOTION": 14.22339891, "ECCENTRICITY": 0.00404486, "INCLINATION": 98.648, "RA_OF_ASC_NODE": 19.7275, "ARG_OF_PERICENTER": 24.2253, "MEAN_ANOMALY": 336.0816, "EPHEMERIS_TYPE": 0, "CLASSIFICATION_TYPE": "U", "NORAD_CAT_ID": 37435, "ELEMENT_SET_NO": 999, "REV_AT_EPOCH": 88891, "BSTAR": 0.0015347361, "MEAN_MOTION_DOT": 3.4e-05, "MEAN_MOTION_DDOT": 0}, "tle": {"line1": "1 37435U 99025EHD 25343.35346685  .00003400  00000+0  15347-2 0  9992", "line2": "2 37435  98.6480  19.7275 0040448  24.2253 336.0816 14.22339891888911"}}, "geometry": {"type": "Point", "coordinates": [-149.8219673358001, 44.597449510849145]}}]}